STARLINK-32259          
1 60937U 24155P   26068.46185029 -.00000584  00000+0 -75981-5 0  9992
2 60937  53.1608 130.8932 0001183  80.5241 279.5894 15.30184006 86308
KUIPER-00175            
1 67135U 25301C   26068.97960463  .00019968  00000+0  66732-3 0  9998
2 67135  51.8781  63.6978 0002279  50.5695 309.5490 15.30996371 13854
